[{"OBJECT_ID":"2006-034B","OBJECT_NAME":"BLOCK DM-SL R/B","NORAD_CAT_ID":"29350","OBJECT_TYPE":"ROCKET BODY","PERIOD":"678.762","INCLINATION":"0.7296","APOGEE":"35527.714","PERIGEE":"2884.458","ECCENTRICITY":"0.6379568","MEAN_MOTION":"2.1215069","TLE_LINE1":"1 29350U 06034B   16238.81613514 -.00000028 +00000-0 +00000-0 0  9992","TLE_LINE2":"2 29350 000.7296 046.9914 6379568 008.4112 188.5149 02.12150690077598","LAUNCH_DATE":"2006-08-22","LAUNCH_SITE":"SEA LAUNCH","OWNER":"SEA LAUNCH DEMO","ORBIT_TYPE":"Highly Elliptical Orbit","OPERATIONAL_STATUS":"N/A, derelict rocket body","satInfo":{"lng":129.18864108420212,"lat":-2.0299407740653175,"elevation":-10.772275172735217,"azimuth":185.81135891579788,"range":41789.415753362315,"height":34700.60968967185,"velocity":1.9563231552746447},"x":269,"y":219,"dx":-12,"dy":-15},{"OBJECT_ID":"2006-043A","OBJECT_NAME":"DIRECTV 9S","NORAD_CAT_ID":"29494","OBJECT_TYPE":"PAYLOAD","PERIOD":"1436.096","INCLINATION":"0.0127","APOGEE":"35799.430","PERIGEE":"35773.735","ECCENTRICITY":"0.0003047","MEAN_MOTION":"1.00271834","TLE_LINE1":"1 29494U 06043A   16239.34169606 -.00000142  00000-0  00000+0 0  9994","TLE_LINE2":"2 29494   0.0127 195.0257 0003047 331.8462 190.0447  1.00271834 36190","LAUNCH_DATE":"2006-10-13","LAUNCH_SITE":"FRENCH GUIANA","OWNER":"UNITED STATES OF AMERICA","ORBIT_TYPE":"Geosynchronous","OPERATIONAL_STATUS":"Operational","satInfo":{"lng":-104.81057164833962,"lat":0.4203393260911196,"elevation":-8.164194040423892,"azimuth":59.81057164833952,"range":42589.47786375243,"height":35780.83716118031,"velocity":3.075167962310235},"x":-346,"y":91,"dx":-8,"dy":30},{"OBJECT_ID":"2006-043B","OBJECT_NAME":"OPTUS D1","NORAD_CAT_ID":"29495","OBJECT_TYPE":"PAYLOAD","PERIOD":"1436.100","INCLINATION":"0.0405","APOGEE":"35801.168","PERIGEE":"35772.158","ECCENTRICITY":"0.000344","MEAN_MOTION":"1.00271548","TLE_LINE1":"1 29495U 06043B   16238.84658787 -.00000138 +00000-0 +00000-0 0  9998","TLE_LINE2":"2 29495 000.0405 312.2904 0003440 209.9667 277.0270 01.00271548036193","LAUNCH_DATE":"2006-10-13","LAUNCH_SITE":"FRENCH GUIANA","OWNER":"AUSTRALIA","ORBIT_TYPE":"Geosynchronous","OPERATIONAL_STATUS":"Operational","satInfo":{"lng":-83.09710703723127,"lat":-0.8796648906232541,"elevation":-9.426185761312746,"azimuth":38.097107037231225,"range":42767.07895285842,"height":35816.443636730626,"velocity":3.0736741180949414},"x":-356,"y":-43,"dx":4,"dy":31},{"OBJECT_ID":"2006-049A","OBJECT_NAME":"XM-4","NORAD_CAT_ID":"29520","OBJECT_TYPE":"PAYLOAD","PERIOD":"1436.087","INCLINATION":"0.0069","APOGEE":"35786.816","PERIGEE":"35786.024","ECCENTRICITY":"9.4e-06","MEAN_MOTION":"1.00272414","TLE_LINE1":"1 29520U 06049A   16239.22206819 -.00000051  00000-0  00000+0 0  9994","TLE_LINE2":"2 29520   0.0069 256.1058 0000094 309.8612  93.6607  1.00272414 36072","LAUNCH_DATE":"2006-10-30","LAUNCH_SITE":"SEA LAUNCH","OWNER":"UNITED STATES OF AMERICA","ORBIT_TYPE":"Geosynchronous","OPERATIONAL_STATUS":"Operational","satInfo":{"lng":-105.45076290654471,"lat":0.17131286859631553,"elevation":-8.407765896302188,"azimuth":60.45076290654469,"range":42616.065855214234,"height":35780.10195319311,"velocity":3.0749487582409563},"x":-345,"y":95,"dx":-8,"dy":30},{"OBJECT_ID":"2006-049B","OBJECT_NAME":"BLOCK DM-SL R/B","NORAD_CAT_ID":"29521","OBJECT_TYPE":"ROCKET BODY","PERIOD":"657.923","INCLINATION":"0.4057","APOGEE":"36053.874","PERIGEE":"1305.559","ECCENTRICITY":"0.6933618","MEAN_MOTION":"2.18870388","TLE_LINE1":"1 29521U 06049B   16238.70308968 -.00000011 +00000-0 +00000-0 0  9992","TLE_LINE2":"2 29521 000.4057 057.4201 6933618 010.9546 008.0369 02.18870388078508","LAUNCH_DATE":"2006-10-30","LAUNCH_SITE":"SEA LAUNCH","OWNER":"SEA LAUNCH DEMO","ORBIT_TYPE":"Highly Elliptical Orbit","OPERATIONAL_STATUS":"N/A, derelict rocket body","satInfo":{"lng":-112.53866946945286,"lat":0.3605420452417362,"elevation":-8.232832451427015,"azimuth":67.53866946945278,"range":42545.993404794724,"height":35730.22458259528,"velocity":1.7393286552733775},"x":-330,"y":137,"dx":-7,"dy":16},{"OBJECT_ID":"2006-051A","OBJECT_NAME":"ARABSAT 4B","NORAD_CAT_ID":"29526","OBJECT_TYPE":"PAYLOAD","PERIOD":"1436.135","INCLINATION":"0.0563","APOGEE":"35793.867","PERIGEE":"35780.838","ECCENTRICITY":"0.0001545","MEAN_MOTION":"1.00269088","TLE_LINE1":"1 29526U 06051A   16239.11160700  .00000116  00000-0  00000+0 0  9990","TLE_LINE2":"2 29526   0.0563 315.3196 0001545 245.6662 199.9749  1.00269088 35970","LAUNCH_DATE":"2006-11-08","LAUNCH_SITE":"TYURATAM MISSILE AND SPACE COMPLEX","OWNER":"ARAB SATELLITE COMMUNICATIONS ORGANIZATION","ORBIT_TYPE":"Geosynchronous","OPERATIONAL_STATUS":"Operational","satInfo":{"lng":60.52922929862343,"lat":1.5676670397933041,"elevation":-7.043515924154068,"azimuth":254.47077070137658,"range":42449.62044348791,"height":35766.88753395825,"velocity":3.075181816216832},"x":311,"y":-176,"dx":15,"dy":-27},{"OBJECT_ID":"2006-054A","OBJECT_NAME":"WILDBLUE 1","NORAD_CAT_ID":"29643","OBJECT_TYPE":"PAYLOAD","PERIOD":"1436.133","INCLINATION":"0.0412","APOGEE":"35795.119","PERIGEE":"35779.501","ECCENTRICITY":"0.0001852","MEAN_MOTION":"1.00269241","TLE_LINE1":"1 29643U 06054A   16238.31198453 -.00000075  00000-0  00000+0 0  9995","TLE_LINE2":"2 29643   0.0412 263.7481 0001852 270.8307 160.5488  1.00269241 35619","LAUNCH_DATE":"2006-12-08","LAUNCH_SITE":"FRENCH GUIANA","OWNER":"UNITED STATES OF AMERICA","ORBIT_TYPE":"Geosynchronous","OPERATIONAL_STATUS":"Operational","satInfo":{"lng":-106.67293984189686,"lat":-0.1757414636590586,"elevation":-8.747313954540681,"azimuth":61.67293984189687,"range":42651.36105800529,"height":35777.32886573357,"velocity":3.075229899970361},"x":-343,"y":103,"dx":-9,"dy":29},{"OBJECT_ID":"2006-054B","OBJECT_NAME":"AMC-18","NORAD_CAT_ID":"29644","OBJECT_TYPE":"PAYLOAD","PERIOD":"1436.102","INCLINATION":"0.0544","APOGEE":"35796.893","PERIGEE":"35776.519","ECCENTRICITY":"0.0002416","MEAN_MOTION":"1.00271393","TLE_LINE1":"1 29644U 06054B   16238.61855453 -.00000116  00000-0  00000+0 0  9995","TLE_LINE2":"2 29644   0.0544 291.1668 0002416 228.9749 291.8770  1.00271393 35634","LAUNCH_DATE":"2006-12-08","LAUNCH_SITE":"FRENCH GUIANA","OWNER":"SOCIÉTÉ EUROPÉENNE DES SATELLITES","ORBIT_TYPE":"Geosynchronous","OPERATIONAL_STATUS":"Operational","satInfo":{"lng":-105.31110066467475,"lat":-1.104478390389913,"elevation":-9.652195072381703,"azimuth":60.31110066467475,"range":42757.10821001311,"height":35781.51397333265,"velocity":3.0750449887670213},"x":-345,"y":94,"dx":-8,"dy":30},{"OBJECT_ID":"2006-056A","OBJECT_NAME":"MEASAT 3","NORAD_CAT_ID":"29648","OBJECT_TYPE":"PAYLOAD","PERIOD":"1436.151","INCLINATION":"0.0258","APOGEE":"35803.597","PERIGEE":"35771.728","ECCENTRICITY":"0.0003779","MEAN_MOTION":"1.00267983","TLE_LINE1":"1 29648U 06056A   16238.80744811 -.00000268 +00000-0 +00000-0 0  9996","TLE_LINE2":"2 29648 000.0258 160.1942 0003779 001.2357 195.2008 01.00267983014537","LAUNCH_DATE":"2006-12-11","LAUNCH_SITE":"TYURATAM MISSILE AND SPACE COMPLEX","OWNER":"MALAYSIA","ORBIT_TYPE":"Geosynchronous","OPERATIONAL_STATUS":"Operational","satInfo":{"lng":58.856940207571306,"lat":-0.9390760568902062,"elevation":-9.488163788936571,"azimuth":256.1430597924287,"range":42753.33210785737,"height":35795.97445791483,"velocity":3.073950694509545},"x":306,"y":-185,"dx":16,"dy":-26},{"OBJECT_ID":"2007-003A","OBJECT_NAME":"BEIDOU 1D","NORAD_CAT_ID":"30323","OBJECT_TYPE":"PAYLOAD","PERIOD":"1452.271","INCLINATION":"1.7254","APOGEE":"36364.537","PERIGEE":"35840.673","ECCENTRICITY":"0.0061659","MEAN_MOTION":"0.99155006","TLE_LINE1":"1 30323U 07003A   16237.42683444 -.00000268 +00000-0 +00000-0 0  9992","TLE_LINE2":"2 30323 001.7254 088.9497 0061659 176.3926 184.0751 00.99155006035175","LAUNCH_DATE":"2007-02-02","LAUNCH_SITE":"Xichang Space Center, China","OWNER":"PEOPLES REPUBLIC OF CHINA","ORBIT_TYPE":"Geosynchronous","OPERATIONAL_STATUS":"Nonoperational","satInfo":{"lng":5.260307291636912,"lat":-3.987380091545147,"elevation":-12.403923274219668,"azimuth":309.739692708363,"range":43306.89623147844,"height":36020.398448626845,"velocity":3.0691538023380347},"x":33,"y":-359,"dx":31,"dy":-3},{"OBJECT_ID":"2007-007A","OBJECT_NAME":"INSAT 4B","NORAD_CAT_ID":"30793","OBJECT_TYPE":"PAYLOAD","PERIOD":"1436.083","INCLINATION":"0.535","APOGEE":"35809.013","PERIGEE":"35763.661","ECCENTRICITY":"0.0005378","MEAN_MOTION":"1.00272709","TLE_LINE1":"1 30793U 07007A   16238.95394752 -.00000286 +00000-0 +00000-0 0  9997","TLE_LINE2":"2 30793 000.5350 089.5099 0005378 142.0345 180.0113 01.00272709006287","LAUNCH_DATE":"2007-03-11","LAUNCH_SITE":"FRENCH GUIANA","OWNER":"INDIA","ORBIT_TYPE":"Geosynchronous","OPERATIONAL_STATUS":"Operational","satInfo":{"lng":56.877720678437676,"lat":-1.2816302640897645,"elevation":-9.819363054799338,"azimuth":258.1222793215623,"range":42803.09134232874,"height":35808.44581900554,"velocity":3.07311371647104},"x":300,"y":-196,"dx":17,"dy":-26},{"OBJECT_ID":"2007-007B","OBJECT_NAME":"SKYNET 5A","NORAD_CAT_ID":"30794","OBJECT_TYPE":"PAYLOAD","PERIOD":"1436.094","INCLINATION":"0.068","APOGEE":"35802.199","PERIGEE":"35770.905","ECCENTRICITY":"0.0003711","MEAN_MOTION":"1.00271944","TLE_LINE1":"1 30794U 07007B   16239.05176374 -.00000299  00000-0  00000+0 0  9991","TLE_LINE2":"2 30794   0.0680 352.5223 0003711 174.0413 281.9790  1.00271944 34734","LAUNCH_DATE":"2007-03-11","LAUNCH_SITE":"FRENCH GUIANA","OWNER":"UNITED KINGDOM","ORBIT_TYPE":"Geosynchronous","OPERATIONAL_STATUS":"Operational","satInfo":{"lng":55.13536203032001,"lat":0.3423624920969918,"elevation":-8.236636217205714,"azimuth":259.86463796967996,"range":42616.74472020364,"height":35799.76089877998,"velocity":3.0737657616776635},"x":294,"y":-205,"dx":18,"dy":-25}]